{
  "last_updated": "2026-04-21T06:00:02.996328",
  "satellites": {
    "98592": {
      "name": "DUTHSat-2",
      "norad_id": "98592",
      "tle": "1 64530U 25135C   26110.89249604  .00011153  00000-0  44231-3 0  9994\n2 64530  97.4551 226.9120 0005151  46.3441 313.8223 15.25534296 46191",
      "epoch": "2026-04-20T21:25:11.657856",
      "fetched_at": "2026-04-21T06:00:03.090508",
      "source": "satnogs"
    },
    "98530": {
      "name": "LAMARR",
      "norad_id": "98530",
      "tle": "1 66673U 25276H   26026.90917087  .00034524  00000-0  16680-2 0  9998\n2 66673  97.4301 102.8338 0007597 141.5941 218.5835 15.18529012  8972",
      "epoch": "2026-01-26T21:49:12.363168",
      "fetched_at": "2026-01-28T06:00:02.884758",
      "source": "satnogs",
      "note": "Using previous TLE (fetch/manual failed today)"
    },
    "98529": {
      "name": "DIRAC",
      "norad_id": "98529",
      "tle": "1 66681U 25276R   26026.63281774  .00024563  00000-0  11745-2 0  9993\n2 66681  97.4280 102.5712 0006320 148.4115 211.7500 15.18972786  8932",
      "epoch": "2026-01-26T15:11:15.452736",
      "fetched_at": "2026-01-28T06:00:02.937152",
      "source": "satnogs",
      "note": "Using previous TLE (fetch/manual failed today)"
    },
    "98518": {
      "name": "MICE-1",
      "norad_id": "98518",
      "tle": "1 66684U 25276U   26110.93307625  .00003081  00000-0  15143-3 0  9996\n2 66684  97.4286 185.5274 0005585 176.4259 183.7016 15.18771519 21720",
      "epoch": "2026-04-20T22:23:37.788000",
      "fetched_at": "2026-04-21T06:00:03.211922",
      "source": "satnogs"
    },
    "68416": {
      "name": "PeakSat",
      "norad_id": "68416",
      "tle": "1 68416U 26067A   26110.85027999  .00005809  00000-0  28308-3 0  9991\n2 68416  97.4511  70.1962 0004163 102.2527 257.9174 15.18716374  3249",
      "epoch": "2026-04-20T20:24:24.191136",
      "fetched_at": "2026-04-21T06:00:03.257452",
      "source": "satnogs"
    },
    "98370": {
      "name": "OptiSat",
      "norad_id": "98370",
      "tle": "1 69696U 69696    26089.46895426  .00000000  00000-0  00000-0 0 00004\n2 69696 097.4414 038.3720 0003145 156.7651 191.1423 15.18459822000011",
      "epoch": "2026-03-30T11:15:17.648064",
      "fetched_at": "2026-04-17T12:47:18.541523",
      "source": "manual"
    },
    "68468": {
      "name": "ERMIS-1",
      "norad_id": "68468",
      "tle": "1 68468U 26067BE  26108.63518419  .00007816  00000-0  40184-3 0  9999\n2 68468  97.4522  67.9588 0004680 263.2357  96.8344 15.16725190  2904",
      "epoch": "2026-04-18T15:14:39.914016",
      "fetched_at": "2026-04-21T06:00:03.299410",
      "source": "satnogs"
    },
    "68420": {
      "name": "ERMIS-2",
      "norad_id": "68420",
      "tle": "1 68420U 26067E   26110.85147036  .00008188  00000-0  39798-3 0  9999\n2 68420  97.4452  70.1805 0003646  87.6051 272.5600 15.18681472  3244",
      "epoch": "2026-04-20T20:26:07.039104",
      "fetched_at": "2026-04-21T06:00:03.343713",
      "source": "satnogs"
    },
    "98367": {
      "name": "ERMIS-3",
      "norad_id": "98367",
      "tle": "1 68425U 26067K   26110.85684202  .00004050  00000-0  20128-3 0  9996\n2 68425  97.4554  70.1989 0002648 125.9600 234.1880 15.18212500  3248",
      "epoch": "2026-04-20T20:33:51.150528",
      "fetched_at": "2026-04-21T06:00:03.389719",
      "source": "satnogs"
    }
  },
  "fetch_log": []
}